[{"OBJECT_NAME":"FLOCK 4Q-11","OBJECT_ID":"2023-174T","EPOCH":"2026-03-05T16:22:56.248608","MEAN_MOTION":15.44901715,"ECCENTRICITY":0.00076279,"INCLINATION":97.3909,"RA_OF_ASC_NODE":151.2212,"ARG_OF_PERICENTER":168.9787,"MEAN_ANOMALY":191.163,"EPHEMERIS_TYPE":0,"CLASSIFICATION_TYPE":"U","NORAD_CAT_ID":58273,"ELEMENT_SET_NO":999,"REV_AT_EPOCH":12958,"BSTAR":0.00059897401,"MEAN_MOTION_DOT":0.00028148,"MEAN_MOTION_DDOT":0},{"OBJECT_NAME":"FLOCK 4Q-36","OBJECT_ID":"2023-174U","EPOCH":"2026-03-05T17:43:49.735776","MEAN_MOTION":15.50905938,"ECCENTRICITY":0.0007777,"INCLINATION":97.3896,"RA_OF_ASC_NODE":153.9032,"ARG_OF_PERICENTER":158.7505,"MEAN_ANOMALY":201.4072,"EPHEMERIS_TYPE":0,"CLASSIFICATION_TYPE":"U","NORAD_CAT_ID":58274,"ELEMENT_SET_NO":999,"REV_AT_EPOCH":12976,"BSTAR":0.00056318693,"MEAN_MOTION_DOT":0.00032615,"MEAN_MOTION_DDOT":0},{"OBJECT_NAME":"FLOCK 4Q-12","OBJECT_ID":"2023-174V","EPOCH":"2026-03-05T17:58:06.006432","MEAN_MOTION":15.51287596,"ECCENTRICITY":0.00058422,"INCLINATION":97.3886,"RA_OF_ASC_NODE":153.7969,"ARG_OF_PERICENTER":166.0649,"MEAN_ANOMALY":194.0765,"EPHEMERIS_TYPE":0,"CLASSIFICATION_TYPE":"U","NORAD_CAT_ID":58275,"ELEMENT_SET_NO":999,"REV_AT_EPOCH":12978,"BSTAR":0.0014554872,"MEAN_MOTION_DOT":0.00086124,"MEAN_MOTION_DDOT":0},{"OBJECT_NAME":"FLOCK 4Q-28","OBJECT_ID":"2023-174AA","EPOCH":"2026-03-05T16:34:00.739776","MEAN_MOTION":15.487467,"ECCENTRICITY":0.00072291,"INCLINATION":97.3914,"RA_OF_ASC_NODE":152.9765,"ARG_OF_PERICENTER":165.0642,"MEAN_ANOMALY":195.0824,"EPHEMERIS_TYPE":0,"CLASSIFICATION_TYPE":"U","NORAD_CAT_ID":58280,"ELEMENT_SET_NO":999,"REV_AT_EPOCH":12969,"BSTAR":0.00062709646,"MEAN_MOTION_DOT":0.00033668,"MEAN_MOTION_DDOT":0},{"OBJECT_NAME":"FLOCK 4Q-27","OBJECT_ID":"2023-174AC","EPOCH":"2026-03-05T18:01:01.012224","MEAN_MOTION":15.48734723,"ECCENTRICITY":0.00066591,"INCLINATION":97.386,"RA_OF_ASC_NODE":152.5809,"ARG_OF_PERICENTER":161.0008,"MEAN_ANOMALY":199.1492,"EPHEMERIS_TYPE":0,"CLASSIFICATION_TYPE":"U","NORAD_CAT_ID":58282,"ELEMENT_SET_NO":999,"REV_AT_EPOCH":12971,"BSTAR":0.00065376864,"MEAN_MOTION_DOT":0.0003509,"MEAN_MOTION_DDOT":0},{"OBJECT_NAME":"FLOCK 4Q-26","OBJECT_ID":"2023-174AE","EPOCH":"2026-03-05T17:30:44.900640","MEAN_MOTION":15.50542013,"ECCENTRICITY":0.00072518,"INCLINATION":97.3909,"RA_OF_ASC_NODE":153.9805,"ARG_OF_PERICENTER":162.9987,"MEAN_ANOMALY":197.1509,"EPHEMERIS_TYPE":0,"CLASSIFICATION_TYPE":"U","NORAD_CAT_ID":58284,"ELEMENT_SET_NO":999,"REV_AT_EPOCH":12976,"BSTAR":0.00068137558,"MEAN_MOTION_DOT":0.00038999,"MEAN_MOTION_DDOT":0},{"OBJECT_NAME":"FLOCK 4Q-31","OBJECT_ID":"2023-174AF","EPOCH":"2026-03-05T16:40:59.555136","MEAN_MOTION":15.50052556,"ECCENTRICITY":0.00077883,"INCLINATION":97.3954,"RA_OF_ASC_NODE":153.5875,"ARG_OF_PERICENTER":164.7163,"MEAN_ANOMALY":195.4326,"EPHEMERIS_TYPE":0,"CLASSIFICATION_TYPE":"U","NORAD_CAT_ID":58285,"ELEMENT_SET_NO":999,"REV_AT_EPOCH":12971,"BSTAR":0.00072825472,"MEAN_MOTION_DOT":0.00040991,"MEAN_MOTION_DDOT":0},{"OBJECT_NAME":"FLOCK 4Q-30","OBJECT_ID":"2023-174AG","EPOCH":"2026-03-05T17:57:25.900416","MEAN_MOTION":15.5028002,"ECCENTRICITY":0.00075387,"INCLINATION":97.3953,"RA_OF_ASC_NODE":153.8223,"ARG_OF_PERICENTER":161.6595,"MEAN_ANOMALY":198.493,"EPHEMERIS_TYPE":0,"CLASSIFICATION_TYPE":"U","NORAD_CAT_ID":58286,"ELEMENT_SET_NO":999,"REV_AT_EPOCH":12973,"BSTAR":0.00071077977,"MEAN_MOTION_DOT":0.00040321,"MEAN_MOTION_DDOT":0},{"OBJECT_NAME":"PELICAN-1","OBJECT_ID":"2023-174AS","EPOCH":"2026-03-05T05:17:21.029856","MEAN_MOTION":15.63352596,"ECCENTRICITY":0.0008834,"INCLINATION":97.3829,"RA_OF_ASC_NODE":158.7414,"ARG_OF_PERICENTER":215.1143,"MEAN_ANOMALY":144.9534,"EPHEMERIS_TYPE":0,"CLASSIFICATION_TYPE":"U","NORAD_CAT_ID":58296,"ELEMENT_SET_NO":999,"REV_AT_EPOCH":12986,"BSTAR":0.00093305,"MEAN_MOTION_DOT":0.00086541,"MEAN_MOTION_DDOT":0},{"OBJECT_NAME":"FLOCK 4Q-25","OBJECT_ID":"2023-174AZ","EPOCH":"2026-03-05T17:41:24.951840","MEAN_MOTION":15.56104669,"ECCENTRICITY":0.00052273,"INCLINATION":97.3869,"RA_OF_ASC_NODE":154.6648,"ARG_OF_PERICENTER":147.4384,"MEAN_ANOMALY":212.7194,"EPHEMERIS_TYPE":0,"CLASSIFICATION_TYPE":"U","NORAD_CAT_ID":58303,"ELEMENT_SET_NO":999,"REV_AT_EPOCH":12985,"BSTAR":0.0007647989,"MEAN_MOTION_DOT":0.00053593,"MEAN_MOTION_DDOT":0},{"OBJECT_NAME":"FLOCK 4Q-29","OBJECT_ID":"2023-174BA","EPOCH":"2026-03-05T23:14:31.506144","MEAN_MOTION":15.49232715,"ECCENTRICITY":0.00078399,"INCLINATION":97.394,"RA_OF_ASC_NODE":153.6481,"ARG_OF_PERICENTER":152.6223,"MEAN_ANOMALY":207.5442,"EPHEMERIS_TYPE":0,"CLASSIFICATION_TYPE":"U","NORAD_CAT_ID":58304,"ELEMENT_SET_NO":999,"REV_AT_EPOCH":12974,"BSTAR":0.00063441636,"MEAN_MOTION_DOT":0.00034656,"MEAN_MOTION_DDOT":0},{"OBJECT_NAME":"FLOCK 4Q-22","OBJECT_ID":"2023-174BC","EPOCH":"2026-03-05T17:47:49.089696","MEAN_MOTION":15.51805317,"ECCENTRICITY":0.00066084,"INCLINATION":97.3856,"RA_OF_ASC_NODE":153.587,"ARG_OF_PERICENTER":157.2613,"MEAN_ANOMALY":202.8933,"EPHEMERIS_TYPE":0,"CLASSIFICATION_TYPE":"U","NORAD_CAT_ID":58306,"ELEMENT_SET_NO":999,"REV_AT_EPOCH":12978,"BSTAR":0.00068907679,"MEAN_MOTION_DOT":0.00041256,"MEAN_MOTION_DDOT":0},{"OBJECT_NAME":"FLOCK 4Q-23","OBJECT_ID":"2023-174BD","EPOCH":"2026-03-05T23:07:57.978336","MEAN_MOTION":15.54936304,"ECCENTRICITY":0.00068988,"INCLINATION":97.3969,"RA_OF_ASC_NODE":155.3559,"ARG_OF_PERICENTER":152.7575,"MEAN_ANOMALY":207.4042,"EPHEMERIS_TYPE":0,"CLASSIFICATION_TYPE":"U","NORAD_CAT_ID":58307,"ELEMENT_SET_NO":999,"REV_AT_EPOCH":12985,"BSTAR":0.00072565938,"MEAN_MOTION_DOT":0.00048702,"MEAN_MOTION_DDOT":0},{"OBJECT_NAME":"FLOCK 4Q-33","OBJECT_ID":"2023-174BE","EPOCH":"2026-03-05T17:24:46.701792","MEAN_MOTION":15.50894501,"ECCENTRICITY":0.00075246,"INCLINATION":97.3885,"RA_OF_ASC_NODE":153.5101,"ARG_OF_PERICENTER":147.0012,"MEAN_ANOMALY":213.1711,"EPHEMERIS_TYPE":0,"CLASSIFICATION_TYPE":"U","NORAD_CAT_ID":58308,"ELEMENT_SET_NO":999,"REV_AT_EPOCH":12976,"BSTAR":0.00072647545,"MEAN_MOTION_DOT":0.00042129,"MEAN_MOTION_DDOT":0},{"OBJECT_NAME":"FLOCK 4Q-35","OBJECT_ID":"2023-174BF","EPOCH":"2026-03-05T17:02:04.671456","MEAN_MOTION":15.49867066,"ECCENTRICITY":0.00082017,"INCLINATION":97.3904,"RA_OF_ASC_NODE":153.6644,"ARG_OF_PERICENTER":159.7517,"MEAN_ANOMALY":200.4061,"EPHEMERIS_TYPE":0,"CLASSIFICATION_TYPE":"U","NORAD_CAT_ID":58309,"ELEMENT_SET_NO":999,"REV_AT_EPOCH":12974,"BSTAR":0.00065664366,"MEAN_MOTION_DOT":0.00036696,"MEAN_MOTION_DDOT":0},{"OBJECT_NAME":"FLOCK 4Q-34","OBJECT_ID":"2023-174BN","EPOCH":"2026-03-05T17:13:59.258208","MEAN_MOTION":15.55117162,"ECCENTRICITY":0.00066702,"INCLINATION":97.3866,"RA_OF_ASC_NODE":154.5044,"ARG_OF_PERICENTER":154.1646,"MEAN_ANOMALY":205.9943,"EPHEMERIS_TYPE":0,"CLASSIFICATION_TYPE":"U","NORAD_CAT_ID":58316,"ELEMENT_SET_NO":999,"REV_AT_EPOCH":12982,"BSTAR":0.0008791532,"MEAN_MOTION_DOT":0.00059492,"MEAN_MOTION_DDOT":0}]
