FLOCK 4Q-11             
1 58273U 23174T   26064.68259547  .00028148  00000+0  59897-3 0  9999
2 58273  97.3909 151.2212 0007627 168.9787 191.1630 15.44901715129589
FLOCK 4Q-36             
1 58274U 23174U   26064.73877009  .00032615  00000+0  56319-3 0  9995
2 58274  97.3896 153.9032 0007777 158.7505 201.4072 15.50905938129768
FLOCK 4Q-12             
1 58275U 23174V   26064.74868063  .00086124  00000+0  14555-2 0  9996
2 58275  97.3886 153.7969 0005842 166.0649 194.0765 15.51287596129789
FLOCK 4Q-28             
1 58280U 23174AA  26064.69028634  .00033668  00000+0  62710-3 0  9990
2 58280  97.3914 152.9765 0007229 165.0642 195.0824 15.48746700129695
FLOCK 4Q-27             
1 58282U 23174AC  26064.75070616  .00035090  00000+0  65377-3 0  9999
2 58282  97.3860 152.5809 0006659 161.0008 199.1492 15.48734723129711
FLOCK 4Q-26             
1 58284U 23174AE  26064.72968635  .00038999  00000+0  68138-3 0  9994
2 58284  97.3909 153.9805 0007251 162.9987 197.1509 15.50542013129767
FLOCK 4Q-31             
1 58285U 23174AF  26064.69513374  .00040991  00000+0  72825-3 0  9990
2 58285  97.3954 153.5875 0007788 164.7163 195.4326 15.50052556129713
FLOCK 4Q-30             
1 58286U 23174AG  26064.74821644  .00040321  00000+0  71078-3 0  9995
2 58286  97.3953 153.8223 0007538 161.6595 198.4930 15.50280020129736
PELICAN-1               
1 58296U 23174AS  26064.22038229  .00086541  00000+0  93305-3 0  9999
2 58296  97.3829 158.7414 0008834 215.1143 144.9534 15.63352596129861
FLOCK 4Q-25             
1 58303U 23174AZ  26064.73709435  .00053593  00000+0  76480-3 0  9994
2 58303  97.3869 154.6648 0005227 147.4384 212.7194 15.56104669129858
FLOCK 4Q-29             
1 58304U 23174BA  26064.96842021  .00034656  00000+0  63442-3 0  9992
2 58304  97.3940 153.6481 0007839 152.6223 207.5442 15.49232715129746
FLOCK 4Q-22             
1 58306U 23174BC  26064.74154039  .00041256  00000+0  68908-3 0  9991
2 58306  97.3856 153.5870 0006608 157.2613 202.8933 15.51805317129786
FLOCK 4Q-23             
1 58307U 23174BD  26064.96386549  .00048702  00000+0  72566-3 0  9997
2 58307  97.3969 155.3559 0006898 152.7575 207.4042 15.54936304129858
FLOCK 4Q-33             
1 58308U 23174BE  26064.72554053  .00042129  00000+0  72648-3 0  9997
2 58308  97.3885 153.5101 0007524 147.0012 213.1711 15.50894501129764
FLOCK 4Q-35             
1 58309U 23174BF  26064.70977629  .00036696  00000+0  65664-3 0  9996
2 58309  97.3904 153.6644 0008201 159.7517 200.4061 15.49867066129742
FLOCK 4Q-34             
1 58316U 23174BN  26064.71804697  .00059492  00000+0  87915-3 0  9991
2 58316  97.3866 154.5044 0006670 154.1646 205.9943 15.55117162129821
